start=new Date('2022-08-14T00:00:00.000Z').valueOf();
sats=[{"NORAD_CAT_ID":"49430","EPHEMERIS_TYPE":"0","MEAN_MOTION_DDOT":"0.0000000000000","GP_ID":"210165271","FILE":"3535825","ECCENTRICITY":"0.00013980","DECAY_DATE":null,"MEAN_ELEMENT_THEORY":"SGP4","LAUNCH_DATE":"2021-11-13","ELEMENT_SET_NO":"999","APOAPSIS":"540.692","ARG_OF_PERICENTER":"78.0545","MEAN_ANOMALY":"282.0604","SEMIMAJOR_AXIS":"6917.860","REF_FRAME":"TEME","TLE_LINE2":"2 49430  53.2178 322.8288 0001398  78.0545 282.0604 15.08846642 41787","CENTER_NAME":"EARTH","OBJECT_NAME":"STARLINK-3138","RA_OF_ASC_NODE":"322.8288","INCLINATION":"53.2178","OBJECT_TYPE":"PAYLOAD","REV_AT_EPOCH":"4178","BSTAR":"-0.00009885600000","EPOCH":"2022-08-13T17:34:01.893504","PERIOD":"95.437","TLE_LINE1":"1 49430U 21104Y   22225.73196636 -.00001861  00000-0 -98856-4 0  9990","MEAN_MOTION":"15.08846642","SITE":"AFETR","RCS_SIZE":"LARGE","COUNTRY_CODE":"US","MEAN_MOTION_DOT":"-0.00001861","CLASSIFICATION_TYPE":"U","OBJECT_ID":"2021-104Y","TIME_SYSTEM":"UTC","PERIAPSIS":"538.758"},{"OBJECT_TYPE":"PAYLOAD","INCLINATION":"53.2186","BSTAR":"0.00004017500000","EPOCH":"2022-08-13T16:37:03.620928","REV_AT_EPOCH":"4177","SITE":"AFETR","COUNTRY_CODE":"US","RCS_SIZE":"LARGE","PERIOD":"95.438","MEAN_MOTION":"15.08838409","TLE_LINE1":"1 49431U 21104Z   22225.69240302  .00000352  00000-0  40175-4 0  9999","PERIAPSIS":"539.045","CLASSIFICATION_TYPE":"U","MEAN_MOTION_DOT":"0.00000352","OBJECT_ID":"2021-104Z","TIME_SYSTEM":"UTC","NORAD_CAT_ID":"49431","ECCENTRICITY":"0.00010190","FILE":"3535825","DECAY_DATE":null,"MEAN_MOTION_DDOT":"0.0000000000000","EPHEMERIS_TYPE":"0","GP_ID":"210166022","LAUNCH_DATE":"2021-11-13","ELEMENT_SET_NO":"999","MEAN_ELEMENT_THEORY":"SGP4","CENTER_NAME":"EARTH","OBJECT_NAME":"STARLINK-3153","RA_OF_ASC_NODE":"322.9902","APOAPSIS":"540.455","ARG_OF_PERICENTER":"75.1905","MEAN_ANOMALY":"284.9200","TLE_LINE2":"2 49431  53.2186 322.9902 0001019  75.1905 284.9200 15.08838409 41773","REF_FRAME":"TEME","SEMIMAJOR_AXIS":"6917.885"},{"LAUNCH_DATE":"2021-11-13","ELEMENT_SET_NO":"999","MEAN_ELEMENT_THEORY":"SGP4","CENTER_NAME":"EARTH","OBJECT_NAME":"STARLINK-3158","RA_OF_ASC_NODE":"313.5698","ARG_OF_PERICENTER":"53.7890","APOAPSIS":"540.960","MEAN_ANOMALY":"306.3262","REF_FRAME":"TEME","TLE_LINE2":"2 49432  53.2166 313.5698 0001724  53.7890 306.3262 15.08832677 41899","SEMIMAJOR_AXIS":"6917.903","NORAD_CAT_ID":"49432","ECCENTRICITY":"0.00017240","FILE":"3535824","DECAY_DATE":null,"MEAN_MOTION_DDOT":"0.0000000000000","EPHEMERIS_TYPE":"0","GP_ID":"210140063","SITE":"AFETR","COUNTRY_CODE":"US","RCS_SIZE":"LARGE","PERIOD":"95.438","MEAN_MOTION":"15.08832677","TLE_LINE1":"1 49432U 21104AA  22225.56454757 -.00000346  00000-0 -36201-5 0  9998","PERIAPSIS":"538.575","CLASSIFICATION_TYPE":"U","MEAN_MOTION_DOT":"-0.00000346","TIME_SYSTEM":"UTC","OBJECT_ID":"2021-104AA","OBJECT_TYPE":"PAYLOAD","INCLINATION":"53.2166","BSTAR":"-0.00000362010000","EPOCH":"2022-08-13T13:32:56.910048","REV_AT_EPOCH":"4189"},{"REV_AT_EPOCH":"4313","BSTAR":"0.00001965200000","EPOCH":"2022-08-13T15:08:16.406880","INCLINATION":"53.2165","OBJECT_TYPE":"PAYLOAD","MEAN_MOTION_DOT":"0.00000025","CLASSIFICATION_TYPE":"U","OBJECT_ID":"2021-104AB","TIME_SYSTEM":"UTC","PERIAPSIS":"538.389","PERIOD":"95.438","TLE_LINE1":"1 49433U 21104AB  22225.63074545  .00000025  00000-0  19652-4 0  9992","MEAN_MOTION":"15.08831703","SITE":"AFETR","RCS_SIZE":"LARGE","COUNTRY_CODE":"US","EPHEMERIS_TYPE":"0","MEAN_MOTION_DDOT":"0.0000000000000","GP_ID":"210164520","FILE":"3535825","ECCENTRICITY":"0.00019970","DECAY_DATE":null,"NORAD_CAT_ID":"49433","ARG_OF_PERICENTER":"41.4251","APOAPSIS":"541.152","MEAN_ANOMALY":"318.6892","SEMIMAJOR_AXIS":"6917.906","REF_FRAME":"TEME","TLE_LINE2":"2 49433  53.2165 303.2684 0001997  41.4251 318.6892 15.08831703 43130","OBJECT_NAME":"STARLINK-3079","CENTER_NAME":"EARTH","RA_OF_ASC_NODE":"303.2684","MEAN_ELEMENT_THEORY":"SGP4","LAUNCH_DATE":"2021-11-13","ELEMENT_SET_NO":"999"},{"CENTER_NAME":"EARTH","OBJECT_NAME":"STARLINK-3134","RA_OF_ASC_NODE":"323.4392","MEAN_ANOMALY":"299.1161","APOAPSIS":"540.790","ARG_OF_PERICENTER":"60.9982","SEMIMAJOR_AXIS":"6917.880","TLE_LINE2":"2 49434  53.2187 323.4392 0001511  60.9982 299.1161 15.08840258 42848","REF_FRAME":"TEME","LAUNCH_DATE":"2021-11-13","ELEMENT_SET_NO":"999","MEAN_ELEMENT_THEORY":"SGP4","FILE":"3535825","ECCENTRICITY":"0.00015110","DECAY_DATE":null,"MEAN_MOTION_DDOT":"0.0000000000000","EPHEMERIS_TYPE":"0","GP_ID":"210165772","NORAD_CAT_ID":"49434","PERIAPSIS":"538.699","MEAN_MOTION_DOT":"0.00001803","CLASSIFICATION_TYPE":"U","OBJECT_ID":"2021-104AC","TIME_SYSTEM":"UTC","SITE":"AFETR","RCS_SIZE":"LARGE","COUNTRY_CODE":"US","PERIOD":"95.438","TLE_LINE1":"1 49434U 21104AC  22225.59579683  .00001803  00000-0  13133-3 0  9993","MEAN_MOTION":"15.08840258","BSTAR":"0.00013133000000","EPOCH":"2022-08-13T14:17:56.846112","REV_AT_EPOCH":"4284","INCLINATION":"53.2187","OBJECT_TYPE":"PAYLOAD"},{"EPOCH":"2022-08-13T12:04:11.404128","BSTAR":"0.00015655000000","REV_AT_EPOCH":"4202","INCLINATION":"53.2167","OBJECT_TYPE":"PAYLOAD","PERIAPSIS":"538.699","OBJECT_ID":"2021-104AD","TIME_SYSTEM":"UTC","MEAN_MOTION_DOT":"0.00002204","CLASSIFICATION_TYPE":"U","RCS_SIZE":"LARGE","COUNTRY_CODE":"US","SITE":"AFETR","TLE_LINE1":"1 49435U 21104AD  22225.50290977  .00002204  00000-0  15655-3 0  9998","MEAN_MOTION":"15.08840620","PERIOD":"95.438","DECAY_DATE":null,"FILE":"3535824","ECCENTRICITY":"0.00015100","GP_ID":"210140314","MEAN_MOTION_DDOT":"0.0000000000000","EPHEMERIS_TYPE":"0","NORAD_CAT_ID":"49435","RA_OF_ASC_NODE":"303.8485","CENTER_NAME":"EARTH","OBJECT_NAME":"STARLINK-3117","SEMIMAJOR_AXIS":"6917.878","REF_FRAME":"TEME","TLE_LINE2":"2 49435  53.2167 303.8485 0001510  56.8945 303.2192 15.08840620 42028","APOAPSIS":"540.788","ARG_OF_PERICENTER":"56.8945","MEAN_ANOMALY":"303.2192","ELEMENT_SET_NO":"999","LAUNCH_DATE":"2021-11-13","MEAN_ELEMENT_THEORY":"SGP4"},{"DECAY_DATE":null,"FILE":"3535825","ECCENTRICITY":"0.00016690","GP_ID":"210164270","EPHEMERIS_TYPE":"0","MEAN_MOTION_DDOT":"0.0000000000000","NORAD_CAT_ID":"49436","RA_OF_ASC_NODE":"302.9466","CENTER_NAME":"EARTH","OBJECT_NAME":"STARLINK-3049","SEMIMAJOR_AXIS":"6917.835","REF_FRAME":"TEME","TLE_LINE2":"2 49436  53.2161 302.9466 0001669  55.0613 305.0536 15.08854900 42051","MEAN_ANOMALY":"305.0536","APOAPSIS":"540.854","ARG_OF_PERICENTER":"55.0613","ELEMENT_SET_NO":"999","LAUNCH_DATE":"2021-11-13","MEAN_ELEMENT_THEORY":"SGP4","EPOCH":"2022-08-13T16:48:58.200768","BSTAR":"0.00025339000000","REV_AT_EPOCH":"4205","INCLINATION":"53.2161","OBJECT_TYPE":"PAYLOAD","PERIAPSIS":"538.545","TIME_SYSTEM":"UTC","OBJECT_ID":"2021-104AE","MEAN_MOTION_DOT":"0.00003749","CLASSIFICATION_TYPE":"U","RCS_SIZE":"LARGE","COUNTRY_CODE":"US","SITE":"AFETR","TLE_LINE1":"1 49436U 21104AE  22225.70067362  .00003749  00000-0  25339-3 0  9996","MEAN_MOTION":"15.08854900","PERIOD":"95.437"},{"INCLINATION":"53.2159","OBJECT_TYPE":"PAYLOAD","BSTAR":"0.00017346000000","EPOCH":"2022-08-13T16:38:21.920928","REV_AT_EPOCH":"4205","SITE":"AFETR","RCS_SIZE":"LARGE","COUNTRY_CODE":"US","PERIOD":"95.437","TLE_LINE1":"1 49437U 21104AF  22225.69330927  .00002474  00000-0  17346-3 0  9998","MEAN_MOTION":"15.08841361","PERIAPSIS":"538.542","MEAN_MOTION_DOT":"0.00002474","CLASSIFICATION_TYPE":"U","TIME_SYSTEM":"UTC","OBJECT_ID":"2021-104AF","NORAD_CAT_ID":"49437","FILE":"3535825","ECCENTRICITY":"0.00017330","DECAY_DATE":null,"EPHEMERIS_TYPE":"0","MEAN_MOTION_DDOT":"0.0000000000000","GP_ID":"210165021","LAUNCH_DATE":"2021-11-13","ELEMENT_SET_NO":"999","MEAN_ELEMENT_THEORY":"SGP4","CENTER_NAME":"EARTH","OBJECT_NAME":"STARLINK-3130","RA_OF_ASC_NODE":"303.0038","ARG_OF_PERICENTER":"43.8612","APOAPSIS":"540.940","MEAN_ANOMALY":"316.2518","SEMIMAJOR_AXIS":"6917.876","TLE_LINE2":"2 49437  53.2159 303.0038 0001733  43.8612 316.2518 15.08841361 42053","REF_FRAME":"TEME"},{"DECAY_DATE":null,"ECCENTRICITY":"0.00015440","FILE":"3535824","GP_ID":"210139563","EPHEMERIS_TYPE":"0","MEAN_MOTION_DDOT":"0.0000000000000","NORAD_CAT_ID":"49438","RA_OF_ASC_NODE":"303.9054","CENTER_NAME":"EARTH","OBJECT_NAME":"STARLINK-3044","TLE_LINE2":"2 49438  53.2175 303.9054 0001544  56.7270 303.3870 15.08848394 42020","REF_FRAME":"TEME","SEMIMAJOR_AXIS":"6917.855","MEAN_ANOMALY":"303.3870","APOAPSIS":"540.788","ARG_OF_PERICENTER":"56.7270","ELEMENT_SET_NO":"999","LAUNCH_DATE":"2021-11-13","MEAN_ELEMENT_THEORY":"SGP4","EPOCH":"2022-08-13T11:46:54.570432","BSTAR":"0.00023198000000","REV_AT_EPOCH":"4202","OBJECT_TYPE":"PAYLOAD","INCLINATION":"53.2175","PERIAPSIS":"538.652","TIME_SYSTEM":"UTC","OBJECT_ID":"2021-104AG","CLASSIFICATION_TYPE":"U","MEAN_MOTION_DOT":"0.00003407","COUNTRY_CODE":"US","RCS_SIZE":"LARGE","SITE":"AFETR","MEAN_MOTION":"15.08848394","TLE_LINE1":"1 49438U 21104AG  22225.49090938  .00003407  00000-0  23198-3 0  9991","PERIOD":"95.437"},{"REV_AT_EPOCH":"4204","BSTAR":"0.00004413200000","EPOCH":"2022-08-13T14:31:10.405056","INCLINATION":"53.2172","OBJECT_TYPE":"PAYLOAD","MEAN_MOTION_DOT":"0.00000414","CLASSIFICATION_TYPE":"U","TIME_SYSTEM":"UTC","OBJECT_ID":"2021-104AH","PERIAPSIS":"538.559","PERIOD":"95.437","TLE_LINE1":"1 49439U 21104AH  22225.60498154  .00000414  00000-0  44132-4 0  9994","MEAN_MOTION":"15.08843439","SITE":"AFETR","RCS_SIZE":"LARGE","COUNTRY_CODE":"US","MEAN_MOTION_DDOT":"0.0000000000000","EPHEMERIS_TYPE":"0","GP_ID":"210166023","FILE":"3535825","ECCENTRICITY":"0.00017000","DECAY_DATE":null,"NORAD_CAT_ID":"49439","ARG_OF_PERICENTER":"45.7733","APOAPSIS":"540.911","MEAN_ANOMALY":"314.3399","SEMIMAJOR_AXIS":"6917.870","REF_FRAME":"TEME","TLE_LINE2":"2 49439  53.2172 303.3971 0001700  45.7733 314.3399 15.08843439 42041","CENTER_NAME":"EARTH","OBJECT_NAME":"STARLINK-3108","RA_OF_ASC_NODE":"303.3971","MEAN_ELEMENT_THEORY":"SGP4","LAUNCH_DATE":"2021-11-13","ELEMENT_SET_NO":"999"}];
